RADUGA 1 [-]            
1 08513U 75123A   17284.59285617 -.00000202  00000-0  00000-0 0  9995
2 08513  10.2967 310.8031 0006702 202.1237 164.9544  1.00258518163027
RADUGA 2 [-]            
1 09416U 76092A   17284.62202378 -.00000033  00000-0  00000-0 0  9993
2 09416  10.9156 312.6533 0030519 302.0713  55.7620  1.00255375 97549
RADUGA 3 [-]            
1 10159U 77071A   17284.88383968 -.00000370  00000-0  00000-0 0  9994
2 10159  11.4705 314.9080 0009089 215.7023 279.1112  1.00240681145259
RADUGA 4 [-]            
1 10987U 78073A   17284.19888870  .00000119  00000-0  00000-0 0  9992
2 10987  12.0060 317.8079 0013400 299.8767 233.9632  1.00246018 87800
RADUGA 5 [-]            
1 11343U 79035A   17284.62202378 -.00000073  00000-0  00000-0 0  9999
2 11343  12.3870 320.0690 0000889 198.4945 155.8111  1.00294153 97553
RADUGA 6 [-]            
1 11708U 80016A   17283.67836773  .00000112  00000-0  00000-0 0  9994
2 11708  12.6514 322.5710 0004404 257.3000  86.0737  1.00287344 90354
RADUGA 7 [-]            
1 12003U 80081A   17284.52003949 -.00000115  00000-0  00000-0 0  9995
2 12003  12.7698 324.1867 0013568 242.4128 252.6148  1.00383986 91510
RADUGA 8 [-]            
1 12351U 81027A   17284.54650389 -.00000351  00000-0  00000-0 0  9992
2 12351  13.0689 324.9688 0085046 180.8751 200.7844  1.00372233 90728
RADUGA 9 [-]            
1 12618U 81069A   17284.00749819  .00000096  00000-0  00000+0 0  9996
2 12618  13.1888 327.1908 0002185 287.8452 172.8000  1.00326514 96534
RADUGA 10 [-]           
1 12897U 81102A   17283.18313139 -.00000021  00000-0  00000+0 0  9992
2 12897  13.2383 327.9564 0003202 194.2050 347.4951  1.00276344 85590
RADUGA 11 [-]           
1 13669U 82113A   17284.96296122 -.00000182  00000-0  00000+0 0  9990
2 13669  14.7379 339.0757 0041570 212.7953 148.6793  0.97709669 90558
RADUGA 12 [-]           
1 13974U 83028A   17283.17827213 -.00000133  00000-0  00000+0 0  9994
2 13974  13.9439 336.3659 0003670 285.5674 258.6054  1.00250040137567
RADUGA 13 [-]           
1 14307U 83088A   17284.96296122 -.00000202  00000-0  00000+0 0  9995
2 14307  14.8778 340.7652 0016892 340.5157  14.8421  0.98175218 87815
RADUGA 14 [-]           
1 14725U 84016A   17284.19146791 -.00000054  00000-0  00000-0 0  9998
2 14725  13.9617 339.4707 0001499 256.9453 279.9971  1.00293079 86300
RADUGA 15 [-]           
1 15057U 84063A   17283.87628428 -.00000146  00000-0  00000+0 0  9996
2 15057  14.0242 340.4364 0001689 212.5694 222.5758  1.00166168109280
RADUGA 16 [-]           
1 15946U 85070A   17284.16149263 -.00000249  00000-0  00000+0 0  9994
2 15946  14.2218 344.6354 0004476 254.5486 118.6812  1.00174476 90421
RADUGA 17 [-]           
1 16250U 85107A   17284.41304264 -.00000313  00000-0  00000+0 0  9998
2 16250  14.2697 345.8187 0010072 165.6687 321.2589  1.00153230120042
RADUGA 18 [-]           
1 16497U 86007A   17284.34200476 -.00000050  00000-0  00000-0 0  9992
2 16497  14.9488 348.1278 0069335 121.1089 244.5172  0.98812639114539
RADUGA 19 [-]           
1 17046U 86082A   17284.19285602 -.00000036  00000-0  00000+0 0  9996
2 17046  15.1320 351.6283 0007182 124.4835 238.5645  0.98459026111734
RADUGA 20 [-]           
1 17611U 87028A   17284.17688250 -.00000096  00000-0  00000-0 0  9996
2 17611  16.9455 355.1560 0022800  95.2853  84.0408  0.95961878107888
RADUGA 21 [-]           
1 18631U 87100A   17285.07688191 -.00000317  00000-0  00000+0 0  9999
2 18631  15.0916 353.3898 0002970 255.3114 105.6057  1.00302398109292
RADUGA 22 [-]           
1 19596U 88095A   17284.40605125  .00000050  00000-0  00000+0 0  9999
2 19596  14.7939 357.0609 0001706 176.0795   6.1973  1.00297039 89907
RADUGA 23 [-]           
1 19928U 89030A   17283.88453094  .00000018  00000-0  00000-0 0  9990
2 19928  14.8137 358.7403 0017165 128.9381 267.5682  1.00356499103059
RADUGA-1 1 [-]          
1 20083U 89048A   17283.92549488 -.00000181  00000-0  00000+0 0  9992
2 20083  15.3770   1.3636 0015307  66.5927 293.0182  0.98710061 99957
RADUGA 24 [-]           
1 20367U 89098A   17284.18174429 -.00000286  00000-0  00000+0 0  9996
2 20367  15.2107   1.2793 0004709 245.1426 293.7423  1.00223166101230
RADUGA 25 [-]           
1 20499U 90016A   17285.21125354 -.00000304  00000-0  00000+0 0  9993
2 20499  14.9426   1.6940 0003847 235.8856 174.2659  1.00322955101161
RADUGA 26 [-]           
1 21016U 90112A   17284.71133843  .00000041  00000-0  00000-0 0  9990
2 21016  15.0106   4.8256 0002973 335.1805 352.5826  1.00248013 98463
RADUGA-1 2 [-]          
1 21038U 90116A   17284.64512278 -.00000082  00000-0  00000-0 0  9999
2 21038  15.0419   4.9340 0002863  15.6574 304.0971  1.00215385 15547
RADUGA 27 [-]           
1 21132U 91014A   17283.75916795 -.00000310  00000-0  00000+0 0  9998
2 21132  15.5677   5.1036 0003114 269.6293 112.8933  1.00369302 97505
RADUGA 28 [-]           
1 21821U 91087A   17284.71438317 -.00000216  00000-0  00000-0 0  9995
2 21821  15.0667   8.2201 0001540 133.1863 223.3814  1.00186733 94521
RADUGA 29 [-]           
1 22557U 93013A   17284.60952196 -.00000386  00000-0  00000-0 0  9995
2 22557  14.9457  12.3182 0000533 200.3628 146.3463  1.00207147 89884
RADUGA 30 [-]           
1 22836U 93062A   17283.88502500 -.00000163  00000-0  00000+0 0  9990
2 22836  14.8417  14.1421 0007047 246.3340 157.2673  1.00282685 87975
RADUGA-1 3 [-]          
1 22981U 94008A   17284.71438317 -.00000275  00000-0  00000+0 0  9993
2 22981  14.8289  15.3290 0003385 235.2302 118.1587  1.00318100 86720
RADUGA 31 [-]           
1 23010U 94012A   17284.07056667  .00000100  00000-0  00000+0 0  9991
2 23010  14.7968  15.3045 0001669 279.3692 154.3901  1.00273066 86542
RADUGA 32 [-]           
1 23448U 94087A   17283.75873344 -.00000151  00000-0  00000+0 0  9998
2 23448  14.5727  17.8524 0009832 210.3283 142.7829  1.00282219101142
RADUGA-1 4 [-]          
1 25642U 99010A   17281.99393741  .00000123  00000-0  00000+0 0  9997
2 25642  14.2097  30.0593 0006709 217.7532 163.2386  1.00286234 68158
RADUGA-1 5 [-]          
1 26477U 00049A   17284.84449406  .00000050  00000-0  00000-0 0  9995
2 26477  11.8881  32.4301 0002688 243.6309 104.9143  1.00219040 62624
RADUGA-1 6 [-]          
1 26936U 01045A   17284.50242611 -.00000160  00000-0  00000-0 0  9997
2 26936  11.5790  37.8492 0016407 141.5443 212.5761  0.97745555 57603
RADUGA-1 7 [-]          
1 28194U 04010A   17284.96299392  .00000123  00000-0  00000+0 0  9995
2 28194   9.8705  45.0901 0004596 197.9003 157.2906  1.00207987 49611
RADUGA-1M 1 [-]         
1 32373U 07058A   17284.72410690 -.00000159  00000-0  00000-0 0  9995
2 32373   3.3127  73.0605 0004262 193.9181 190.5806  0.99401519 20888
RADUGA-1 8 [-]          
1 34264U 09010A   17284.69316741 -.00000212  00000-0  00000-0 0  9994
2 34264   5.9601  67.2532 0009509 298.6698 247.6992  0.99831152 31526
RADUGA-1M 2 [+]         
1 36358U 10002A   17284.71924250 -.00000205  00000-0  00000-0 0  9998
2 36358   0.0275 254.2083 0002499   9.4339 100.8135  1.00271390 18311
RADUGA-1M 3 [+]         
1 39375U 13062A   17284.55813154 -.00000060  00000-0  00000-0 0  9990
2 39375   0.0081 211.3449 0001562  22.1477  57.8292  1.00273554 14330
